STARLINK-2755           
1 48479U 21040BD  26199.56753844  .00008635  00000+0  28955-3 0  9991
2 48479  53.1595 302.4255 0000899  81.4466 278.6637 15.31715743286549
STARLINK-2706           
1 48481U 21040BF  26199.65704774  .00001563  00000+0  62100-4 0  9996
2 48481  53.1597 304.1095 0001166  76.6887 283.4244 15.31708732286533
STARLINK-2525           
1 48482U 21040BG  26199.69438963 -.00000080  00000+0  91920-5 0  9992
2 48482  53.1601 304.3521 0001175  84.2376 275.8760 15.31706569286538
STARLINK-2531           
1 48483U 21040BH  26199.57789084  .00001876  00000+0  72172-4 0  9993
2 48483  53.1595 305.0735 0000869  86.3146 273.7955 15.31712433286511
STARLINK-2500           
1 48485U 21040BK  26199.28888461  .00000666  00000+0  33224-4 0  9993
2 48485  53.1607 306.0623 0000672  82.2548 277.8529 15.31703240286470
STARLINK-2494           
1 48487U 21040BM  26199.71773766  .00021005  00000+0  68845-3 0  9990
2 48487  53.1609 304.3692 0001559  79.7606 280.3571 15.31619456286541
STARLINK-2063           
1 48553U 21041A   26199.51420376  .00000625  00000+0  31885-4 0  9999
2 48553  53.1599 238.0838 0001154  97.4130 262.7003 15.31708202285325
STARLINK-2139           
1 48554U 21041B   26199.31378640  .00000814  00000+0  38004-4 0  9994
2 48554  53.1597 238.9183 0001311  86.1770 273.9382 15.31702741285298
STARLINK-2145           
1 48555U 21041C   26199.58510713  .00001335  00000+0  54754-4 0  9992
2 48555  53.1596 259.9003 0001082  85.1522 274.9603 15.31712938285006
STARLINK-2151           
1 48556U 21041D   26199.31790850  .00000747  00000+0  35809-4 0  9992
2 48556  53.1594 254.6402 0000840  72.5322 287.5772 15.31707187285062
STARLINK-2155           
1 48557U 21041E   26199.80784813  .00000028  00000+0  12653-4 0  9993
2 48557  53.1584 236.7718 0000782  84.7774 275.3317 15.31700492285369
STARLINK-2166           
1 48558U 21041F   26199.80320226 -.00001221  00000+0 -27621-4 0  9997
2 48558  53.1569 236.7818 0000589 102.7978 257.3089 15.31689774284506
STARLINK-2187           
1 48562U 21041K   26199.89866521  .00051594  00000+0  39027-3 0  9992
2 48562  53.1515 220.4309 0003064  42.4352 317.6903 15.71921679285608
STARLINK-2188           
1 48563U 21041L   26199.52817988  .00001205  00000+0  50569-4 0  9995
2 48563  53.1591 237.9430 0001097  78.8869 281.2256 15.31709070285322
STARLINK-2190           
1 48564U 21041M   26199.51884886 -.00003339  00000+0 -95827-4 0  9994
2 48564  53.1604 237.9645 0001096  74.2734 285.8388 15.31717665285321
STARLINK-2214           
1 48566U 21041P   26199.58044214  .00002085  00000+0  78911-4 0  9996
2 48566  53.1580 259.8847 0001183  79.9549 280.1586 15.31713069285003
STARLINK-2217           
1 48568U 21041R   26199.53756084  .00000552  00000+0  29532-4 0  9990
2 48568  53.1596 238.3174 0001133  78.5870 281.5258 15.31707466285313
STARLINK-2219           
1 48569U 21041S   26199.52351870  .00000675  00000+0  33497-4 0  9995
2 48569  53.1588 237.9540 0001133  86.0780 274.0351 15.31708377285325
STARLINK-2221           
1 48571U 21041U   26199.54123488  .00000203  00000+0  18304-4 0  9999
2 48571  53.1595 250.7132 0001446  55.2945 304.8192 15.31704346285141
STARLINK-2222           
1 48572U 21041V   26199.55714538  .00000621  00000+0  31751-4 0  9998
2 48572  53.1580 260.0009 0001044  82.0368 278.0752 15.31705854285008
STARLINK-2224           
1 48573U 21041W   26199.49098788  .00000776  00000+0  36755-4 0  9994
2 48573  53.1599 238.7616 0001291  80.9082 279.2065 15.31700741285302
STARLINK-2225           
1 48574U 21041X   26199.75042143 -.00001190  00000+0 -26569-4 0  9993
2 48574  53.1599 211.1574 0001254  84.4573 275.6571 15.31705885285715
STARLINK-2227           
1 48575U 21041Y   26199.98973146 -.00000155  00000+0  67898-5 0  9995
2 48575  53.1587 197.2913 0001554  69.6504 290.4665 15.31695691285943
STARLINK-2228           
1 48576U 21041Z   26199.41486099  .00000197  00000+0  18115-4 0  9992
2 48576  53.1581 212.8097 0001289  90.8729 269.2420 15.31702982285670
STARLINK-2231           
1 48577U 21041AA  26199.83115431 -.00002177  00000+0 -58414-4 0  9996
2 48577  53.1572 236.7192 0000718  80.4273 279.6809 15.31704032285367
STARLINK-2232           
1 48578U 21041AB  26199.92434443  .00000447  00000+0  26167-4 0  9990
2 48578  53.1594 236.1137 0000977  78.3190 281.7921 15.31710869285382
STARLINK-2234           
1 48580U 21041AD  26199.30765078 -.00000088  00000+0  89143-5 0  9992
2 48580  53.1596 213.2590 0001202  82.3733 277.7405 15.31705123285655
STARLINK-2235           
1 48581U 21041AE  26199.76546184  .00002440  00000+0  90361-4 0  9994
2 48581  53.1572 213.9639 0001463  96.6692 263.4476 15.31702144285674
STARLINK-2236           
1 48582U 21041AF  26200.00001157  .00136966  00000+0  22333-2 0  9994
2 48582  53.0526 210.4125 0001060  83.6276 325.1972 15.51663568  5891
STARLINK-2237           
1 48583U 21041AG  26198.59238779 -.00000136  00000+0  73883-5 0  9996
2 48583  53.1593 264.5628 0001068  79.8204 280.2918 15.31696131284857
