OBJECT_NAME,OBJECT_ID,EPOCH,MEAN_MOTION,ECCENTRICITY,INCLINATION,RA_OF_ASC_NODE,ARG_OF_PERICENTER,MEAN_ANOMALY,EPHEMERIS_TYPE,CLASSIFICATION_TYPE,NORAD_CAT_ID,ELEMENT_SET_NO,REV_AT_EPOCH,BSTAR,MEAN_MOTION_DOT,MEAN_MOTION_DDOT
STARLINK-2755,2021-040BD,2026-07-18T13:37:15.321216,15.31715743,.0000899,53.1595,302.4255,81.4466,278.6637,0,U,48479,999,28654,.28955E-3,.8635E-4,0
STARLINK-2706,2021-040BF,2026-07-18T15:46:08.924736,15.31708732,.00011661,53.1597,304.1095,76.6887,283.4244,0,U,48481,999,28653,.62099876E-4,.1563E-4,0
STARLINK-2525,2021-040BG,2026-07-18T16:39:55.264032,15.31706569,.00011755,53.1601,304.3521,84.2376,275.8760,0,U,48482,999,28653,.9192006E-5,-.8E-6,0
STARLINK-2531,2021-040BH,2026-07-18T13:52:09.768576,15.31712433,.0000869,53.1595,305.0735,86.3146,273.7955,0,U,48483,999,28651,.72172E-4,.1876E-4,0
STARLINK-2500,2021-040BK,2026-07-18T06:55:59.630304,15.31703240,.00006728,53.1607,306.0623,82.2548,277.8529,0,U,48485,999,28647,.33224456E-4,.666E-5,0
STARLINK-2494,2021-040BM,2026-07-18T17:13:32.533824,15.31619456,.00015592,53.1609,304.3692,79.7606,280.3571,0,U,48487,999,28654,.68844706E-3,.21005E-3,0
STARLINK-2063,2021-041A,2026-07-18T12:20:27.204864,15.31708202,.00011545,53.1599,238.0838,97.4130,262.7003,0,U,48553,999,28532,.31885145E-4,.625E-5,0
STARLINK-2139,2021-041B,2026-07-18T07:31:51.144960,15.31702741,.00013113,53.1597,238.9183,86.1770,273.9382,0,U,48554,999,28529,.38004274E-4,.814E-5,0
STARLINK-2145,2021-041C,2026-07-18T14:02:33.256032,15.31712938,.0001082,53.1596,259.9003,85.1522,274.9603,0,U,48555,999,28500,.54754E-4,.1335E-4,0
STARLINK-2151,2021-041D,2026-07-18T07:37:47.294400,15.31707187,.00008407,53.1594,254.6402,72.5322,287.5772,0,U,48556,999,28506,.35809175E-4,.747E-5,0
STARLINK-2155,2021-041E,2026-07-18T19:23:18.078432,15.31700492,.00007822,53.1584,236.7718,84.7774,275.3317,0,U,48557,999,28536,.12652552E-4,.28E-6,0
STARLINK-2166,2021-041F,2026-07-18T19:16:36.675264,15.31689774,.00005892,53.1569,236.7818,102.7978,257.3089,0,U,48558,999,28450,-.27621173E-4,-.1221E-4,0
STARLINK-2187,2021-041K,2026-07-18T21:34:04.674144,15.71921679,.00030643,53.1515,220.4309,42.4352,317.6903,0,U,48562,999,28560,.39027438E-3,.51594E-3,0
STARLINK-2188,2021-041L,2026-07-18T12:40:34.741632,15.31709070,.00010977,53.1591,237.9430,78.8869,281.2256,0,U,48563,999,28532,.50569155E-4,.1205E-4,0
STARLINK-2190,2021-041M,2026-07-18T12:27:08.541504,15.31717665,.00010962,53.1604,237.9645,74.2734,285.8388,0,U,48564,999,28532,-.95826869E-4,-.3339E-4,0
STARLINK-2214,2021-041P,2026-07-18T13:55:50.200896,15.31713069,.0001183,53.1580,259.8847,79.9549,280.1586,0,U,48566,999,28500,.78911E-4,.2085E-4,0
STARLINK-2217,2021-041R,2026-07-18T12:54:05.256576,15.31707466,.0001133,53.1596,238.3174,78.5870,281.5258,0,U,48568,999,28531,.29532E-4,.552E-5,0
STARLINK-2219,2021-041S,2026-07-18T12:33:52.015680,15.31708377,.00011332,53.1588,237.9540,86.0780,274.0351,0,U,48569,999,28532,.33496591E-4,.675E-5,0
STARLINK-2221,2021-041U,2026-07-18T12:59:22.693632,15.31704346,.0001446,53.1595,250.7132,55.2945,304.8192,0,U,48571,999,28514,.18304E-4,.203E-5,0
STARLINK-2222,2021-041V,2026-07-18T13:22:17.360832,15.31705854,.0001044,53.1580,260.0009,82.0368,278.0752,0,U,48572,999,28500,.31751E-4,.621E-5,0
STARLINK-2224,2021-041W,2026-07-18T11:47:01.352832,15.31700741,.00012914,53.1599,238.7616,80.9082,279.2065,0,U,48573,999,28530,.36755058E-4,.776E-5,0
STARLINK-2225,2021-041X,2026-07-18T18:00:36.411552,15.31705885,.00012541,53.1599,211.1574,84.4573,275.6571,0,U,48574,999,28571,-.26568939E-4,-.119E-4,0
STARLINK-2227,2021-041Y,2026-07-18T23:45:12.798144,15.31695691,.0001554,53.1587,197.2913,69.6504,290.4665,0,U,48575,999,28594,.6789828E-5,-.155E-5,0
STARLINK-2228,2021-041Z,2026-07-18T09:57:23.989536,15.31702982,.00012896,53.1581,212.8097,90.8729,269.2420,0,U,48576,999,28567,.18115102E-4,.197E-5,0
STARLINK-2231,2021-041AA,2026-07-18T19:56:51.732384,15.31704032,.00007183,53.1572,236.7192,80.4273,279.6809,0,U,48577,999,28536,-.58414438E-4,-.2177E-4,0
STARLINK-2232,2021-041AB,2026-07-18T22:11:03.358752,15.31710869,.00009772,53.1594,236.1137,78.3190,281.7921,0,U,48578,999,28538,.26167018E-4,.447E-5,0
STARLINK-2234,2021-041AD,2026-07-18T07:23:01.027392,15.31705123,.00012025,53.1596,213.2590,82.3733,277.7405,0,U,48580,999,28565,.8914277E-5,-.88E-6,0
STARLINK-2235,2021-041AE,2026-07-18T18:22:15.902976,15.31702144,.00014636,53.1572,213.9639,96.6692,263.4476,0,U,48581,999,28567,.90361454E-4,.244E-4,0
STARLINK-2236,2021-041AF,2026-07-19T00:00:00.999648,15.51663568,.00010603,53.0526,210.4125,83.6276,325.1972,0,U,48582,999,589,.22332884E-2,.136966E-2,0
STARLINK-2237,2021-041AG,2026-07-17T14:13:02.305056,15.31696131,.0001068,53.1593,264.5628,79.8204,280.2918,0,U,48583,999,28485,.73883E-5,-.136E-5,0
